$$SOE
2460154.500000000, A.D. 2023-Jul-29 00:00:00.0000, -3.869989975583171E+07, 3.978911047992195E+08, -6.229363229202838E+07,
2460161.500000000, A.D. 2023-Aug-05 00:00:00.0000, -4.796534478088491E+07, 4.018744468673915E+08, -5.971414157060608E+07,
2460168.500000000, A.D. 2023-Aug-12 00:00:00.0000, -5.719679866802146E+07, 4.055728283188083E+08, -5.709229221070662E+07,
2460175.500000000, A.D. 2023-Aug-19 00:00:00.0000, -6.638900887590055E+07, 4.089927831627144E+08, -5.443123349927713E+07,
2460182.500000000, A.D. 2023-Aug-26 00:00:00.0000, -7.553707798508139E+07, 4.121406567278080E+08, -5.173395039607422E+07,
2460189.500000000, A.D. 2023-Sep-02 00:00:00.0000, -8.463643491884410E+07, 4.150226083635240E+08, -4.900327443767694E+07,
2460196.500000000, A.D. 2023-Sep-09 00:00:00.0000, -9.368280861261787E+07, 4.176446147234564E+08, -4.624189389782177E+07,
2460203.500000000, A.D. 2023-Sep-16 00:00:00.0000, -1.026722037424911E+08, 4.200124734165429E+08, -4.345236327402757E+07,
2460210.500000000, A.D. 2023-Sep-23 00:00:00.0000, -1.116008778949161E+08, 4.221318071831455E+08, -4.063711216320832E+07,
2460217.500000000, A.D. 2023-Sep-30 00:00:00.0000, -1.204653203339365E+08, 4.240080696805590E+08, -3.779845344381192E+07,
2460224.500000000, A.D. 2023-Oct-07 00:00:00.0000, -1.292622345514715E+08, 4.256465522481643E+08, -3.493859063659988E+07,
2460231.500000000, A.D. 2023-Oct-14 00:00:00.0000, -1.379885234068397E+08, 4.270523882639616E+08, -3.205962485033147E+07,
2460238.500000000, A.D. 2023-Oct-21 00:00:00.0000, -1.466412734908881E+08, 4.282305566339422E+08, -2.916356151531556E+07,
2460245.500000000, A.D. 2023-Oct-28 00:00:00.0000, -1.552177400150661E+08, 4.291858866291769E+08, -2.625231662589741E+07,
2460252.500000000, A.D. 2023-Nov-04 00:00:00.0000, -1.637153333599834E+08, 4.299230632623631E+08, -2.332772247358096E+07,
2460259.500000000, A.D. 2023-Nov-11 00:00:00.0000, -1.721316070010235E+08, 4.304466325714272E+08, -2.039153296664777E+07,
2460266.500000000, A.D. 2023-Nov-18 00:00:00.0000, -1.804642464967525E+08, 4.307610067191395E+08, -1.744542859000570E+07,
2460273.500000000, A.D. 2023-Nov-25 00:00:00.0000, -1.887110593819200E+08, 4.308704689094532E+08, -1.449102103645331E+07,
2460280.500000000, A.D. 2023-Dec-02 00:00:00.0000, -1.968699658606443E+08, 4.307791780922173E+08, -1.152985753744033E+07,
2460287.500000000, A.D. 2023-Dec-09 00:00:00.0000, -2.049389901539420E+08, 4.304911733852854E+08, -8.563424928294182E+06,
2460294.500000000, A.D. 2023-Dec-16 00:00:00.0000, -2.129162521525529E+08, 4.300103782193229E+08, -5.593153494741738E+06,
2460301.500000000, A.D. 2023-Dec-23 00:00:00.0000, -2.207999589701903E+08, 4.293406048890831E+08, -2.620420596424967E+06,
2460308.500000000, A.D. 2023-Dec-30 00:00:00.0000, -2.285883976853557E+08, 4.284855605594251E+08, 3.534461228519380E+05,
2460315.500000000, A.D. 2024-Jan-06 00:00:00.0000, -2.362799309947119E+08, 4.274488523652198E+08, 3.327165890871018E+06,
2460322.500000000, A.D. 2024-Jan-13 00:00:00.0000, -2.438729925591983E+08, 4.262339897955033E+08, 6.299501874716729E+06,
2460329.500000000, A.D. 2024-Jan-20 00:00:00.0000, -2.513660807803357E+08, 4.248443874447969E+08, 9.269258285926223E+06,
2460336.500000000, A.D. 2024-Jan-27 00:00:00.0000, -2.587577530003330E+08, 4.232833687857580E+08, 1.223527774882263E+07,
2460343.500000000, A.D. 2024-Feb-03 00:00:00.0000, -2.660466205212609E+08, 4.215541700164059E+08, 1.519643888125744E+07,
2460350.500000000, A.D. 2024-Feb-10 00:00:00.0000, -2.732313441362695E+08, 4.196599436926233E+08, 1.815165402698642E+07,
2460357.500000000, A.D. 2024-Feb-17 00:00:00.0000, -2.803106300076928E+08, 4.176037621567179E+08, 2.109986711694658E+07,
2460364.500000000, A.D. 2024-Feb-24 00:00:00.0000, -2.872832258320408E+08, 4.153886207807320E+08, 2.404005164753440E+07,
2460371.500000000, A.D. 2024-Mar-02 00:00:00.0000, -2.941479172403145E+08, 4.130174409964309E+08, 2.697120876153508E+07,
2460378.500000000, A.D. 2024-Mar-09 00:00:00.0000, -3.009035242742233E+08, 4.104930730537384E+08, 2.989236540554637E+07,
2460385.500000000, A.D. 2024-Mar-16 00:00:00.0000, -3.075488975239630E+08, 4.078182987093790E+08, 3.280257253611615E+07,
2460392.500000000, A.D. 2024-Mar-23 00:00:00.0000, -3.140829140139382E+08, 4.049958349592787E+08, 3.570090346764585E+07,
2460399.500000000, A.D. 2024-Mar-30 00:00:00.0000, -3.205044750621074E+08, 4.020283387931887E+08, 3.858645255889517E+07,
2460406.500000000, A.D. 2024-Apr-06 00:00:00.0000, -3.268125058413154E+08, 3.989184096089724E+08, 4.145833393330178E+07,
2460413.500000000, A.D. 2024-Apr-13 00:00:00.0000, -3.330059530767300E+08, 3.956685901256923E+08, 4.431567997001496E+07,
2460420.500000000, A.D. 2024-Apr-20 00:00:00.0000, -3.390837818202109E+08, 3.922813684756520E+08, 4.715763986643726E+07,
2460427.500000000, A.D. 2024-Apr-27 00:00:00.0000, -3.450449728081313E+08, 3.887591809193198E+08, 4.998337836070172E+07,
2460434.500000000, A.D. 2024-May-04 00:00:00.0000, -3.508885203040012E+08, 3.851044144844670E+08, 5.279207454402713E+07,
2460441.500000000, A.D. 2024-May-11 00:00:00.0000, -3.566134301776703E+08, 3.813194094318706E+08, 5.558292072858472E+07,
2460448.500000000, A.D. 2024-May-18 00:00:00.0000, -3.622187181302667E+08, 3.774064615733818E+08, 5.835512136126564E+07,
2460455.500000000, A.D. 2024-May-25 00:00:00.0000, -3.677034080320755E+08, 3.733678244395292E+08, 6.110789197695133E+07,
2460462.500000000, A.D. 2024-Jun-01 00:00:00.0000, -3.730665303060748E+08, 3.692057112435262E+08, 6.384045817784204E+07,
2460469.500000000, A.D. 2024-Jun-08 00:00:00.0000, -3.783071201038900E+08, 3.649222966229424E+08, 6.655205461136663E+07,
2460476.500000000, A.D. 2024-Jun-15 00:00:00.0000, -3.834242148683591E+08, 3.605197187082130E+08, 6.924192395179746E+07,
2460483.500000000, A.D. 2024-Jun-22 00:00:00.0000, -3.884168522825324E+08, 3.560000826973777E+08, 7.190931607129914E+07,
2460490.500000000, A.D. 2024-Jun-29 00:00:00.0000, -3.932840707217320E+08, 3.513654641213380E+08, 7.455348744396463E+07,
2460497.500000000, A.D. 2024-Jul-06 00:00:00.0000, -3.980249095571831E+08, 3.466179093330692E+08, 7.717370033593622E+07,
2460504.500000000, A.D. 2024-Jul-13 00:00:00.0000, -4.026384073554773E+08, 3.417594360473360E+08, 7.976922183101374E+07,
2460511.500000000, A.D. 2024-Jul-20 00:00:00.0000, -4.071235999551064E+08, 3.367920350824057E+08, 8.233932296535689E+07,
2460518.500000000, A.D. 2024-Jul-27 00:00:00.0000, -4.114795190718678E+08, 3.317176723477730E+08, 8.488327795072010E+07,
2460525.500000000, A.D. 2024-Aug-03 00:00:00.0000, -4.157051911561126E+08, 3.265382907058915E+08, 8.740036342820662E+07,
2460532.500000000, A.D. 2024-Aug-10 00:00:00.0000, -4.197996363329360E+08, 3.212558117065098E+08, 8.988985773480693E+07,
2460539.500000000, A.D. 2024-Aug-17 00:00:00.0000, -4.237618673755227E+08, 3.158721372191655E+08, 9.235104017823377E+07,
2460546.500000000, A.D. 2024-Aug-24 00:00:00.0000, -4.275908886813671E+08, 3.103891509460675E+08, 9.478319031387496E+07,
2460553.500000000, A.D. 2024-Aug-31 00:00:00.0000, -4.312856951329532E+08, 3.048087197584971E+08, 9.718558720641302E+07,
2460560.500000000, A.D. 2024-Sep-07 00:00:00.0000, -4.348452704743171E+08, 2.991326949874054E+08, 9.955750865100573E+07,
2460567.500000000, A.D. 2024-Sep-14 00:00:00.0000, -4.382685851152548E+08, 2.933629146679132E+08, 1.018982304256514E+08,
2460574.500000000, A.D. 2024-Sep-21 00:00:00.0000, -4.415545953897756E+08, 2.875012071541064E+08, 1.042070257927751E+08,
2460581.500000000, A.D. 2024-Sep-28 00:00:00.0000, -4.447022447541910E+08, 2.815493928810336E+08, 1.064831650294199E+08,
2460588.500000000, A.D. 2024-Oct-05 00:00:00.0000, -4.477104632515981E+08, 2.755092842794932E+08, 1.087259146477056E+08,
2460595.500000000, A.D. 2024-Oct-12 00:00:00.0000, -4.505781656004910E+08, 2.693826868263884E+08, 1.109345365802107E+08,
2460602.500000000, A.D. 2024-Oct-19 00:00:00.0000, -4.533042496573018E+08, 2.631714009635165E+08, 1.131082874673092E+08,
2460609.500000000, A.D. 2024-Oct-26 00:00:00.0000, -4.558875952838069E+08, 2.568772240880980E+08, 1.152464179826472E+08,
2460616.500000000, A.D. 2024-Nov-02 00:00:00.0000, -4.583270633600231E+08, 2.505019524712609E+08, 1.173481721596087E+08,
2460623.500000000, A.D. 2024-Nov-09 00:00:00.0000, -4.606214948439929E+08, 2.440473831296930E+08, 1.194127867101508E+08,
2460630.500000000, A.D. 2024-Nov-16 00:00:00.0000, -4.627697098507406E+08, 2.375153156553807E+08, 1.214394903322399E+08,
2460637.500000000, A.D. 2024-Nov-23 00:00:00.0000, -4.647705067018079E+08, 2.309075539584038E+08, 1.234275029961228E+08,
2460644.500000000, A.D. 2024-Nov-30 00:00:00.0000, -4.666226607354850E+08, 2.242259078851917E+08, 1.253760351854585E+08,
2460651.500000000, A.D. 2024-Dec-07 00:00:00.0000, -4.683249224567659E+08, 2.174721951380153E+08, 1.272842870878031E+08,
2460658.500000000, A.D. 2024-Dec-14 00:00:00.0000, -4.698760157144587E+08, 2.106482447248781E+08, 1.291514478962539E+08,
2460665.500000000, A.D. 2024-Dec-21 00:00:00.0000, -4.712746382236804E+08, 2.037559007047861E+08, 1.309766953324384E+08,
2460672.500000000, A.D. 2024-Dec-28 00:00:00.0000, -4.725194624606563E+08, 1.967970232679294E+08, 1.327591949664353E+08,
2460679.500000000, A.D. 2025-Jan-04 00:00:00.0000, -4.736091343304247E+08, 1.897734895333413E+08, 1.344980992879631E+08,
2460686.500000000, A.D. 2025-Jan-11 00:00:00.0000, -4.745422714275095E+08, 1.826871957294952E+08, 1.361925468299133E+08,
2460693.500000000, A.D. 2025-Jan-18 00:00:00.0000, -4.753174618067592E+08, 1.755400598458389E+08, 1.378416613522157E+08,
2460700.500000000, A.D. 2025-Jan-25 00:00:00.0000, -4.759332630208753E+08, 1.683340242886319E+08, 1.394445510239267E+08,
2460707.500000000, A.D. 2025-Feb-01 00:00:00.0000, -4.763882012347749E+08, 1.610710585192002E+08, 1.410003075824961E+08,
2460714.500000000, A.D. 2025-Feb-08 00:00:00.0000, -4.766807703581668E+08, 1.537531617028921E+08, 1.425080054651631E+08,
2460721.500000000, A.D. 2025-Feb-15 00:00:00.0000, -4.768094311675603E+08, 1.463823653579719E+08, 1.439667009068453E+08,
$$EOE